NORAD_CAT_ID,OBJECT_NAME,OBJECT_TYPE,EPOCH,MEAN_MOTION,ECCENTRICITY,INCLINATION,RA_OF_ASC_NODE,ARG_OF_PERICENTER,MEAN_ANOMALY,BSTAR,MEAN_MOTION_DOT,MEAN_MOTION_DDOT,TLE_LINE0,TLE_LINE1,TLE_LINE2,SEMIMAJOR_AXIS,PERIOD,APOGEE,PERIGEE,DECAYED
49441.0,STARLINK-3128,PAYLOAD,2022-03-10 22:00:01,15.1078196,0.0002031,53.2174,282.2959,38.6829,205.3095,-0.042177,-0.00663072,0.0,0 STARLINK-3128,1 49441U 21104AK  22069.91668981 -.00663072  00000-0 -42177-1 0  9995,2 49441  53.2174 282.2959 0002031  38.6829 205.3095 15.10781960  3639,6911.951,95.315,535.22,532.4119999999998,0.0
49441.0,STARLINK-3128,PAYLOAD,2022-03-11 12:00:00,15.09966917,0.0001935,53.2174,279.6714,40.1919,137.2492,-0.043347,-0.00666023,0.0,0 STARLINK-3128,1 49441U 21104AK  22070.50001157 -.00666023  00000-0 -43347-1 0  9997,2 49441  53.2174 279.6714 0001935  40.1919 137.2492 15.09966917 19713,6914.438,95.366,537.641,534.965,0.0
49441.0,STARLINK-3128,PAYLOAD,2022-03-11 14:00:01,15.09849162,0.0001835,53.2176,279.2971,42.4781,228.1816,-0.043252,-0.00662619,0.0,0 STARLINK-3128,1 49441U 21104AK  22070.58334491 -.00662619  00000-0 -43252-1 0  9997,2 49441  53.2176 279.2971 0001835  42.4781 228.1816 15.09849162  3611,6914.7980000000025,95.374,537.931,535.394,0.0
49441.0,STARLINK-3128,PAYLOAD,2022-03-11 22:00:00,15.09359517,0.0002026,53.2176,277.8015,37.3162,245.8716,-0.040081,-0.00609099,0.0,0 STARLINK-3128,1 49441U 21104AK  22070.91667824 -.00609099  00000-0 -40081-1 0  9993,2 49441  53.2176 277.8015 0002026  37.3162 245.8716 15.09359517  3629,6916.293000000002,95.405,539.559,536.757,0.0
49441.0,STARLINK-3128,PAYLOAD,2022-03-12 06:00:00,15.08846641,0.0001723,53.2174,276.3037,48.4647,246.688,-0.0010907999999999,-0.00017609,0.0,0 STARLINK-3128,1 49441U 21104AK  22071.25001157 -.00017609  00000-0 -10908-2 0  9998,2 49441  53.2174 276.3037 0001723  48.4647 246.6880 15.08846641 19827,6917.86,95.437,540.9169999999998,538.533,0.0
49441.0,STARLINK-3128,PAYLOAD,2022-03-12 14:00:01,15.08787758,0.0001807,53.2175,274.8029,42.4093,264.3888,0.0027032,0.00042934,0.0,0 STARLINK-3128,1 49441U 21104AK  22071.58334491  .00042934  00000-0  27032-2 0  9997,2 49441  53.2175 274.8029 0001807  42.4093 264.3888 15.08787758  3634,6918.04,95.441,541.155,538.655,0.0
49441.0,STARLINK-3128,PAYLOAD,2022-03-12 22:00:00,15.08823734,0.0001943,53.2171,273.3031,41.1778,277.2176,0.001234,0.00019397,0.0,0 STARLINK-3128,1 49441U 21104AK  22071.91667824  .00019397  00000-0  12340-2 0  9996,2 49441  53.2171 273.3031 0001943  41.1778 277.2176 15.08823734 19921,6917.93,95.439,541.139,538.451,0.0
49441.0,STARLINK-3128,PAYLOAD,2022-03-13 14:00:01,15.08957789,0.0001821,53.2173,270.3148,43.478,298.0764,-0.0094652,-0.00148322,0.0,0 STARLINK-3128,1 49441U 21104AK  22072.58334491 -.00148322  00000-0 -94652-2 0  9990,2 49441  53.2173 270.3148 0001821  43.4780 298.0764 15.08957789  3646,6917.52,95.43,540.645,538.126,0.0
49441.0,STARLINK-3128,PAYLOAD,2022-03-13 22:00:01,15.08836114,0.0001959,53.2164,268.8141,42.8285,310.4307,0.0016223,0.00025623,0.0,0 STARLINK-3128,1 49441U 21104AK  22072.91668981  .00025623  00000-0  16223-2 0  9995,2 49441  53.2164 268.8141 0001959  42.8285 310.4307 15.08836114 20072,6917.892,95.438,541.112,538.4019999999998,0.0
49441.0,STARLINK-3128,PAYLOAD,2022-03-14 14:00:01,15.08888423,0.0001771999999999,53.216,265.8197,47.6344,328.8563,-0.0015595999999999,-0.00025056,0.0,0 STARLINK-3128,1 49441U 21104AK  22073.58335648 -.00025056  00000-0 -15596-2 0  9994,2 49441  53.2160 265.8197 0001772  47.6344 328.8563 15.08888423  3605,6917.732,95.434,540.823,538.372,0.0
49441.0,STARLINK-3128,PAYLOAD,2022-03-14 20:00:01,15.08864608,0.000194,53.2157,264.6987,42.5131,252.6533,-0.0013945,-0.00022428,0.0,0 STARLINK-3128,1 49441U 21104AK  22073.83334491 -.00022428  00000-0 -13945-2 0  9993,2 49441  53.2157 264.6987 0001940  42.5131 252.6533 15.08864608 20216,6917.805,95.436,541.012,538.328,0.0
49441.0,STARLINK-3128,PAYLOAD,2022-03-14 22:00:00,15.08841608,0.0001952,53.2158,264.325,41.5756,346.5083,0.0018325,0.00028998,0.0,0 STARLINK-3128,1 49441U 21104AK  22073.91667824  .00028998  00000-0  18325-2 0  9994,2 49441  53.2158 264.3250 0001952  41.5756 346.5083 15.08841608 20232,6917.875,95.437,541.091,538.39,0.0
49441.0,STARLINK-3128,PAYLOAD,2022-03-15 02:00:01,15.08876268,0.0001948,53.2154,263.5762,40.5295,173.3511,-0.0026677,-0.00042537,0.0,0 STARLINK-3128,1 49441U 21104AK  22074.08334491 -.00042537  00000-0 -26677-2 0  9990,2 49441  53.2154 263.5762 0001948  40.5295 173.3511 15.08876268 20253,6917.77,95.435,540.982,538.2869999999998,0.0
49441.0,STARLINK-3128,PAYLOAD,2022-03-15 22:00:00,15.08790318,0.0002175,53.2157,259.8356,46.1456,16.7118,0.0027307,0.0004338,0.0,0 STARLINK-3128,1 49441U 21104AK  22074.91667824  .00043380  00000-0  27307-2 0  9997,2 49441  53.2157 259.8356 0002175  46.1456  16.7118 15.08790318  3601,6918.031999999997,95.441,541.4019999999998,538.393,0.0
49441.0,STARLINK-3128,PAYLOAD,2022-03-16 06:00:00,15.08816993,0.0002051,53.2157,258.3376,48.5929,25.8199,-4.9429e-05,-1.074e-05,0.0,0 STARLINK-3128,1 49441U 21104AK  22075.25001157 -.00001074  00000-0 -49429-4 0  9993,2 49441  53.2157 258.3376 0002051  48.5929  25.8199 15.08816993 20439,6917.951,95.439,541.235,538.3969999999998,0.0
49441.0,STARLINK-3128,PAYLOAD,2022-03-16 14:00:01,15.08836392,0.0002102,53.2158,256.8411,51.0858,34.8878,-0.00070754,-0.0001153,0.0,0 STARLINK-3128,1 49441U 21104AK  22075.58334491 -.00011530  00000-0 -70754-3 0  9991,2 49441  53.2158 256.8411 0002102  51.0858  34.8878 15.08836392  3621,6917.891,95.438,541.211,538.302,0.0
49441.0,STARLINK-3128,PAYLOAD,2022-03-16 20:00:01,15.08818367,0.0002269,53.2159,255.7202,47.5625,317.0992,0.00070709,0.00010977,0.0,0 STARLINK-3128,1 49441U 21104AK  22075.83334491  .00010977  00000-0  70709-3 0  9991,2 49441  53.2159 255.7202 0002269  47.5625 317.0992 15.08818367  3607,6917.946999999999,95.439,541.381,538.242,0.0
49441.0,STARLINK-3128,PAYLOAD,2022-03-17 14:00:01,15.0885185,0.0002177,53.2164,252.3518,51.6966,69.0154,-0.001103,-0.00017806,0.0,0 STARLINK-3128,1 49441U 21104AK  22076.58334491 -.00017806  00000-0 -11030-2 0  9995,2 49441  53.2164 252.3518 0002177  51.6966  69.0154 15.08851850 20638,6917.844,95.437,541.215,538.203,0.0
49441.0,STARLINK-3128,PAYLOAD,2022-03-17 22:00:00,15.08817929,0.0002317,53.2164,250.8568,46.7804,85.5392,0.0032027,0.00051022,0.0,0 STARLINK-3128,1 49441U 21104AK  22076.91667824  .00051022  00000-0  32027-2 0  9996,2 49441  53.2164 250.8568 0002317  46.7804  85.5392 15.08817929  3624,6917.948,95.439,541.4159999999998,538.21,0.0
49441.0,STARLINK-3128,PAYLOAD,2022-03-18 14:00:01,15.08869402,0.0002198,53.217,247.8625,52.1366,103.3769,-0.0012808,-0.00020631,0.0,0 STARLINK-3128,1 49441U 21104AK  22077.58334491 -.00020631  00000-0 -12808-2 0  9990,2 49441  53.2170 247.8625 0002198  52.1366 103.3769 15.08869402 20788,6917.791,95.436,541.1759999999998,538.135,0.0
49441.0,STARLINK-3128,PAYLOAD,2022-03-18 22:00:00,15.08843473,0.0002289,53.2169,246.3675,46.4742,120.6659,6.1921e-05,6.97e-06,0.0,0 STARLINK-3128,1 49441U 21104AK  22077.91667824  .00000697  00000-0  61921-4 0  9996,2 49441  53.2169 246.3675 0002289  46.4742 120.6659 15.08843473  3680,6917.87,95.437,541.318,538.151,0.0
49441.0,STARLINK-3128,PAYLOAD,2022-03-19 14:00:01,15.08855027,0.0002109,53.2174,243.3733,51.2868,139.0354,-0.0014459,-0.00023236,0.0,0 STARLINK-3128,1 49441U 21104AK  22078.58334491 -.00023236  00000-0 -14459-2 0  9999,2 49441  53.2174 243.3733 0002109  51.2868 139.0354 15.08855027  3619,6917.834,95.437,541.158,538.24,0.0
49441.0,STARLINK-3128,PAYLOAD,2022-03-19 22:00:01,15.08823107,0.0002235,53.2171,241.8781,46.6014,155.3932,0.0029272,0.00046586,0.0,0 STARLINK-3128,1 49441U 21104AK  22078.91668981  .00046586  00000-0  29272-2 0  9990,2 49441  53.2171 241.8781 0002235  46.6014 155.3932 15.08823107 20989,6917.932,95.439,541.3430000000002,538.251,0.0
49441.0,STARLINK-3128,PAYLOAD,2022-03-20 14:00:01,15.08863767,0.0002038,53.2174,238.8844,50.9008,174.2319,-0.0035468,-0.00056332,0.0,0 STARLINK-3128,1 49441U 21104AK  22079.58334491 -.00056332  00000-0 -35468-2 0  9996,2 49441  53.2174 238.8844 0002038  50.9008 174.2319 15.08863767 21087,6917.808000000001,95.436,541.0830000000002,538.263,0.0
49441.0,STARLINK-3128,PAYLOAD,2022-03-20 22:00:01,15.08814985,0.0002131,53.2169,237.389,45.8527,190.9479,0.0025313,0.00040201,0.0,0 STARLINK-3128,1 49441U 21104AK  22079.91668981  .00040201  00000-0  25313-2 0  9991,2 49441  53.2169 237.3890 0002131  45.8527 190.9479 15.08814985  3618,6917.956999999999,95.439,541.2959999999998,538.3480000000002,0.0
49441.0,STARLINK-3128,PAYLOAD,2022-03-21 06:00:00,15.08820421,0.0001957,53.2169,235.8909,50.70399999999999,197.628,0.0024028,0.0003814,0.0,0 STARLINK-3128,1 49441U 21104AK  22080.25001157  .00038140  00000-0  24028-2 0  9997,2 49441  53.2169 235.8909 0001957  50.7040 197.6280 15.08820421 21180,6917.94,95.439,541.159,538.451,0.0
49441.0,STARLINK-3128,PAYLOAD,2022-03-21 14:00:01,15.08860257,0.0002026,53.217,234.3956,50.8456,209.0705,-0.001466,-0.00023557,0.0,0 STARLINK-3128,1 49441U 21104AK  22080.58334491 -.00023557  00000-0 -14660-2 0  9992,2 49441  53.2170 234.3956 0002026  50.8456 209.0705 15.08860257  3606,6917.818,95.436,541.085,538.2819999999998,0.0
49441.0,STARLINK-3128,PAYLOAD,2022-03-21 22:00:00,15.08840868,0.000208,53.2166,232.9002,45.2712,226.253,-0.00079273,-0.00012883,0.0,0 STARLINK-3128,1 49441U 21104AK  22080.91667824 -.00012883  00000-0 -79273-3 0  9990,2 49441  53.2166 232.9002 0002080  45.2712 226.2530 15.08840868 21287,6917.878000000002,95.437,541.182,538.304,0.0
49441.0,STARLINK-3128,PAYLOAD,2022-03-22 14:00:01,15.08845137,0.0002004,53.2167,229.9068,49.208,245.4829,-0.001392,-0.00022377,0.0,0 STARLINK-3128,1 49441U 21104AK  22081.58334491 -.00022377  00000-0 -13920-2 0  9990,2 49441  53.2167 229.9068 0002004  49.2080 245.4829 15.08845137  3620,6917.865,95.437,541.116,538.3430000000002,0.0
